start=new Date('2023-01-14T00:00:00.000Z').valueOf();
sats=[{"MEAN_MOTION":"15.08826031","EPOCH":"2023-01-13T18:40:01.941600","OBJECT_TYPE":"PAYLOAD","SITE":"AFETR","DECAY_DATE":null,"FILE":"3743722","PERIOD":"95.438","TLE_LINE2":"2 50829  53.2155 295.7803 0002585  32.6476 327.4675 15.08826031 56659","MEAN_MOTION_DOT":"-0.00001786","OBJECT_ID":"2022-001AC","NORAD_CAT_ID":"50829","INCLINATION":"53.2155","LAUNCH_DATE":"2022-01-06","COUNTRY_CODE":"US","APOAPSIS":"541.576","GP_ID":"222974839","BSTAR":"-0.00009416600000","TLE_LINE1":"1 50829U 22001AC  23013.77780025 -.00001786  00000-0 -94166-4 0  9998","CLASSIFICATION_TYPE":"U","OBJECT_NAME":"STARLINK-3294","REV_AT_EPOCH":"5665","ECCENTRICITY":"0.00025850","TIME_SYSTEM":"UTC","CENTER_NAME":"EARTH","RCS_SIZE":"LARGE","MEAN_MOTION_DDOT":"0.0000000000000","SEMIMAJOR_AXIS":"6917.923","EPHEMERIS_TYPE":"0","ELEMENT_SET_NO":"999","MEAN_ANOMALY":"327.4675","ARG_OF_PERICENTER":"32.6476","RA_OF_ASC_NODE":"295.7803","PERIAPSIS":"538.000","REF_FRAME":"TEME","MEAN_ELEMENT_THEORY":"SGP4"},{"FILE":"3743722","DECAY_DATE":null,"SITE":"AFETR","OBJECT_TYPE":"PAYLOAD","EPOCH":"2023-01-13T19:05:11.337504","MEAN_MOTION":"15.08815375","INCLINATION":"53.2145","NORAD_CAT_ID":"50830","OBJECT_ID":"2022-001AD","TLE_LINE2":"2 50830  53.2145 305.6904 0002739  34.8424 325.2747 15.08815375 56522","PERIOD":"95.439","MEAN_MOTION_DOT":"-0.00007825","APOAPSIS":"541.715","LAUNCH_DATE":"2022-01-06","COUNTRY_CODE":"US","OBJECT_NAME":"STARLINK-3278","CLASSIFICATION_TYPE":"U","REV_AT_EPOCH":"5652","TLE_LINE1":"1 50830U 22001AD  23013.79527011 -.00007825  00000-0 -47434-3 0  9991","BSTAR":"-0.00047434000000","GP_ID":"222974587","TIME_SYSTEM":"UTC","ECCENTRICITY":"0.00027390","RCS_SIZE":"LARGE","CENTER_NAME":"EARTH","RA_OF_ASC_NODE":"305.6904","MEAN_ANOMALY":"325.2747","ARG_OF_PERICENTER":"34.8424","ELEMENT_SET_NO":"999","EPHEMERIS_TYPE":"0","MEAN_MOTION_DDOT":"0.0000000000000","SEMIMAJOR_AXIS":"6917.956","MEAN_ELEMENT_THEORY":"SGP4","PERIAPSIS":"537.926","REF_FRAME":"TEME"},{"ECCENTRICITY":"0.00026630","TIME_SYSTEM":"UTC","CENTER_NAME":"EARTH","RCS_SIZE":"LARGE","ELEMENT_SET_NO":"999","EPHEMERIS_TYPE":"0","SEMIMAJOR_AXIS":"6917.950","MEAN_MOTION_DDOT":"0.0000000000000","RA_OF_ASC_NODE":"298.9468","MEAN_ANOMALY":"324.7834","ARG_OF_PERICENTER":"35.3334","MEAN_ELEMENT_THEORY":"SGP4","PERIAPSIS":"537.973","REF_FRAME":"TEME","OBJECT_TYPE":"PAYLOAD","EPOCH":"2023-01-13T01:43:57.184032","MEAN_MOTION":"15.08817077","DECAY_DATE":null,"FILE":"3742112","SITE":"AFETR","NORAD_CAT_ID":"50831","PERIOD":"95.439","TLE_LINE2":"2 50831  53.2155 298.9468 0002663  35.3334 324.7834 15.08817077 57821","MEAN_MOTION_DOT":"-0.00007402","OBJECT_ID":"2022-001AE","INCLINATION":"53.2155","COUNTRY_CODE":"US","LAUNCH_DATE":"2022-01-06","APOAPSIS":"541.658","BSTAR":"-0.00044764000000","GP_ID":"222864720","OBJECT_NAME":"STARLINK-3299","REV_AT_EPOCH":"5782","CLASSIFICATION_TYPE":"U","TLE_LINE1":"1 50831U 22001AE  23013.07218963 -.00007402  00000-0 -44764-3 0  9990"},{"RA_OF_ASC_NODE":"305.7171","MEAN_ANOMALY":"318.8123","ARG_OF_PERICENTER":"41.3023","ELEMENT_SET_NO":"999","MEAN_MOTION_DDOT":"0.0000000000000","SEMIMAJOR_AXIS":"6917.938","EPHEMERIS_TYPE":"0","PERIAPSIS":"538.391","REF_FRAME":"TEME","MEAN_ELEMENT_THEORY":"SGP4","TIME_SYSTEM":"UTC","ECCENTRICITY":"0.00020410","RCS_SIZE":"LARGE","CENTER_NAME":"EARTH","APOAPSIS":"541.215","LAUNCH_DATE":"2022-01-06","COUNTRY_CODE":"US","CLASSIFICATION_TYPE":"U","OBJECT_NAME":"STARLINK-3328","REV_AT_EPOCH":"5652","TLE_LINE1":"1 50832U 22001AF  23013.79158679 -.00008716  00000-0 -53042-3 0  9995","GP_ID":"222974091","BSTAR":"-0.00053042000000","DECAY_DATE":null,"FILE":"3743722","SITE":"AFETR","OBJECT_TYPE":"PAYLOAD","MEAN_MOTION":"15.08821041","EPOCH":"2023-01-13T18:59:53.098656","INCLINATION":"53.2159","NORAD_CAT_ID":"50832","TLE_LINE2":"2 50832  53.2159 305.7171 0002041  41.3023 318.8123 15.08821041 56523","MEAN_MOTION_DOT":"-0.00008716","PERIOD":"95.439","OBJECT_ID":"2022-001AF"},{"TLE_LINE2":"2 50833  53.2170 297.1367 0001564 102.8684 257.2483 15.08849164 56614","PERIOD":"95.437","OBJECT_ID":"2022-001AG","MEAN_MOTION_DOT":"0.00004698","NORAD_CAT_ID":"50833","INCLINATION":"53.2170","EPOCH":"2023-01-13T11:25:27.844608","MEAN_MOTION":"15.08849164","OBJECT_TYPE":"PAYLOAD","SITE":"AFETR","FILE":"3743417","DECAY_DATE":null,"BSTAR":"0.00031302000000","GP_ID":"222941068","TLE_LINE1":"1 50833U 22001AG  23013.47601672  .00004698  00000-0  31302-3 0  9995","CLASSIFICATION_TYPE":"U","REV_AT_EPOCH":"5661","OBJECT_NAME":"STARLINK-3316","COUNTRY_CODE":"US","LAUNCH_DATE":"2022-01-06","APOAPSIS":"540.799","CENTER_NAME":"EARTH","RCS_SIZE":"LARGE","ECCENTRICITY":"0.00015640","TIME_SYSTEM":"UTC","MEAN_ELEMENT_THEORY":"SGP4","PERIAPSIS":"538.635","REF_FRAME":"TEME","EPHEMERIS_TYPE":"0","MEAN_MOTION_DDOT":"0.0000000000000","SEMIMAJOR_AXIS":"6917.852","ELEMENT_SET_NO":"999","MEAN_ANOMALY":"257.2483","ARG_OF_PERICENTER":"102.8684","RA_OF_ASC_NODE":"297.1367"},{"OBJECT_TYPE":"PAYLOAD","EPOCH":"2023-01-13T12:22:28.010208","MEAN_MOTION":"15.08821841","FILE":"3743417","DECAY_DATE":null,"SITE":"AFETR","NORAD_CAT_ID":"50834","TLE_LINE2":"2 50834  53.2165 306.9471 0002419  32.8876 327.2266 15.08821841 56472","OBJECT_ID":"2022-001AH","PERIOD":"95.439","MEAN_MOTION_DOT":"-0.00001942","INCLINATION":"53.2165","COUNTRY_CODE":"US","LAUNCH_DATE":"2022-01-06","APOAPSIS":"541.474","BSTAR":"-0.00010397000000","GP_ID":"222942319","CLASSIFICATION_TYPE":"U","OBJECT_NAME":"STARLINK-3331","REV_AT_EPOCH":"5647","TLE_LINE1":"1 50834U 22001AH  23013.51560197 -.00001942  00000-0 -10397-3 0  9999","ECCENTRICITY":"0.00024190","TIME_SYSTEM":"UTC","CENTER_NAME":"EARTH","RCS_SIZE":"LARGE","ELEMENT_SET_NO":"999","EPHEMERIS_TYPE":"0","SEMIMAJOR_AXIS":"6917.936","MEAN_MOTION_DDOT":"0.0000000000000","RA_OF_ASC_NODE":"306.9471","MEAN_ANOMALY":"327.2266","ARG_OF_PERICENTER":"32.8876","MEAN_ELEMENT_THEORY":"SGP4","PERIAPSIS":"538.127","REF_FRAME":"TEME"},{"TIME_SYSTEM":"UTC","ECCENTRICITY":"0.00018790","RCS_SIZE":"LARGE","CENTER_NAME":"EARTH","ARG_OF_PERICENTER":"45.0131","MEAN_ANOMALY":"315.1013","RA_OF_ASC_NODE":"308.7650","MEAN_MOTION_DDOT":"0.0000000000000","SEMIMAJOR_AXIS":"6917.850","EPHEMERIS_TYPE":"0","ELEMENT_SET_NO":"999","REF_FRAME":"TEME","PERIAPSIS":"538.415","MEAN_ELEMENT_THEORY":"SGP4","SITE":"AFETR","DECAY_DATE":null,"FILE":"3743417","MEAN_MOTION":"15.08849953","EPOCH":"2023-01-13T02:39:30.818304","OBJECT_TYPE":"PAYLOAD","INCLINATION":"53.2180","TLE_LINE2":"2 50835  53.2180 308.7650 0001879  45.0131 315.1013 15.08849953 56412","OBJECT_ID":"2022-001AJ","PERIOD":"95.437","MEAN_MOTION_DOT":"0.00001087","NORAD_CAT_ID":"50835","APOAPSIS":"541.015","COUNTRY_CODE":"US","LAUNCH_DATE":"2022-01-06","TLE_LINE1":"1 50835U 22001AJ  23013.11077336  .00001087  00000-0  86354-4 0  9999","OBJECT_NAME":"STARLINK-3310","CLASSIFICATION_TYPE":"U","REV_AT_EPOCH":"5641","GP_ID":"222942571","BSTAR":"0.00008635400000"},{"RCS_SIZE":"LARGE","CENTER_NAME":"EARTH","TIME_SYSTEM":"UTC","ECCENTRICITY":"0.00021690","MEAN_ELEMENT_THEORY":"SGP4","REF_FRAME":"TEME","PERIAPSIS":"538.283","RA_OF_ASC_NODE":"306.6452","MEAN_ANOMALY":"328.5616","ARG_OF_PERICENTER":"31.5506","ELEMENT_SET_NO":"999","EPHEMERIS_TYPE":"0","SEMIMAJOR_AXIS":"6917.918","MEAN_MOTION_DDOT":"0.0000000000000","INCLINATION":"53.2138","NORAD_CAT_ID":"50836","MEAN_MOTION_DOT":"0.00002224","TLE_LINE2":"2 50836  53.2138 306.6452 0002169  31.5506 328.5616 15.08827669 56385","PERIOD":"95.438","OBJECT_ID":"2022-001AK","DECAY_DATE":null,"FILE":"3743722","SITE":"AFETR","OBJECT_TYPE":"PAYLOAD","EPOCH":"2023-01-13T14:03:09.050688","MEAN_MOTION":"15.08827669","CLASSIFICATION_TYPE":"U","OBJECT_NAME":"STARLINK-3330","REV_AT_EPOCH":"5638","TLE_LINE1":"1 50836U 22001AK  23013.58552142  .00002224  00000-0  15785-3 0  9997","BSTAR":"0.00015785000000","GP_ID":"222973592","APOAPSIS":"541.284","LAUNCH_DATE":"2022-01-06","COUNTRY_CODE":"US"},{"MEAN_ELEMENT_THEORY":"SGP4","PERIAPSIS":"538.314","REF_FRAME":"TEME","MEAN_ANOMALY":"327.7532","ARG_OF_PERICENTER":"32.3589","RA_OF_ASC_NODE":"297.1155","EPHEMERIS_TYPE":"0","SEMIMAJOR_AXIS":"6917.906","MEAN_MOTION_DDOT":"0.0000000000000","ELEMENT_SET_NO":"999","RCS_SIZE":"LARGE","CENTER_NAME":"EARTH","TIME_SYSTEM":"UTC","ECCENTRICITY":"0.00021060","TLE_LINE1":"1 50837U 22001AL  23013.47972005 -.00001568  00000-0 -80449-4 0  9992","REV_AT_EPOCH":"5661","OBJECT_NAME":"STARLINK-3318","CLASSIFICATION_TYPE":"U","BSTAR":"-0.00008044900000","GP_ID":"222941570","APOAPSIS":"541.228","LAUNCH_DATE":"2022-01-06","COUNTRY_CODE":"US","INCLINATION":"53.2143","MEAN_MOTION_DOT":"-0.00001568","TLE_LINE2":"2 50837  53.2143 297.1155 0002106  32.3589 327.7532 15.08831532 56615","PERIOD":"95.438","OBJECT_ID":"2022-001AL","NORAD_CAT_ID":"50837","SITE":"AFETR","FILE":"3743417","DECAY_DATE":null,"EPOCH":"2023-01-13T11:30:47.812320","MEAN_MOTION":"15.08831532","OBJECT_TYPE":"PAYLOAD"},{"RA_OF_ASC_NODE":"306.7250","MEAN_ANOMALY":"274.9327","ARG_OF_PERICENTER":"85.2108","ELEMENT_SET_NO":"999","EPHEMERIS_TYPE":"0","SEMIMAJOR_AXIS":"6913.853","MEAN_MOTION_DDOT":"0.0000000000000","MEAN_ELEMENT_THEORY":"SGP4","REF_FRAME":"TEME","PERIAPSIS":"533.039","TIME_SYSTEM":"UTC","ECCENTRICITY":"0.00038750","RCS_SIZE":"LARGE","CENTER_NAME":"EARTH","APOAPSIS":"538.397","LAUNCH_DATE":"2022-01-06","COUNTRY_CODE":"US","OBJECT_NAME":"STARLINK-3322","CLASSIFICATION_TYPE":"U","REV_AT_EPOCH":"5648","TLE_LINE1":"1 50838U 22001AM  23013.54265303  .00039777  00000-0  24143-2 0  9995","BSTAR":"0.00241430000000","GP_ID":"222941819","FILE":"3743417","DECAY_DATE":null,"SITE":"AFETR","OBJECT_TYPE":"PAYLOAD","EPOCH":"2023-01-13T13:01:25.221792","MEAN_MOTION":"15.10158462","INCLINATION":"53.2157","NORAD_CAT_ID":"50838","PERIOD":"95.354","TLE_LINE2":"2 50838  53.2157 306.7250 0003875  85.2108 274.9327 15.10158462 56489","MEAN_MOTION_DOT":"0.00039777","OBJECT_ID":"2022-001AM"}];
